CCSDS_OMM_VERS = 2.0
CREATION_DATE  = 
ORIGINATOR     = 

OBJECT_NAME    = STARLINK-35617
OBJECT_ID      = 2025-259A
CENTER_NAME    = EARTH
REF_FRAME      = TEME
TIME_SYSTEM    = UTC
MEAN_ELEMENT_THEORY = SGP/SGP4

EPOCH          = 2025-12-09T12:12:10.263168
MEAN_MOTION    = 15.40777762
ECCENTRICITY   = .00010396
INCLINATION    = 43.0035
RA_OF_ASC_NODE = 66.7321
ARG_OF_PERICENTER = 134.0359
MEAN_ANOMALY   = 226.0583

EPHEMERIS_TYPE = 0
CLASSIFICATION_TYPE = U
NORAD_CAT_ID   = 66422
ELEMENT_SET_NO = 999
REV_AT_EPOCH   = 566
BSTAR          = .20546289E-2
MEAN_MOTION_DOT = .86728E-3
MEAN_MOTION_DDOT = 0

CCSDS_OMM_VERS = 2.0
CREATION_DATE  = 
ORIGINATOR     = 

OBJECT_NAME    = STARLINK-35618
OBJECT_ID      = 2025-259B
CENTER_NAME    = EARTH
REF_FRAME      = TEME
TIME_SYSTEM    = UTC
MEAN_ELEMENT_THEORY = SGP/SGP4

EPOCH          = 2025-12-10T14:35:56.841792
MEAN_MOTION    = 15.40711706
ECCENTRICITY   = .0001958
INCLINATION    = 43.0022
RA_OF_ASC_NODE = 60.3646
ARG_OF_PERICENTER = 274.9313
MEAN_ANOMALY   = 85.1320

EPHEMERIS_TYPE = 0
CLASSIFICATION_TYPE = U
NORAD_CAT_ID   = 66423
ELEMENT_SET_NO = 999
REV_AT_EPOCH   = 583
BSTAR          = .18368E-2
MEAN_MOTION_DOT = .77237E-3
MEAN_MOTION_DDOT = 0

CCSDS_OMM_VERS = 2.0
CREATION_DATE  = 
ORIGINATOR     = 

OBJECT_NAME    = STARLINK-35588
OBJECT_ID      = 2025-259C
CENTER_NAME    = EARTH
REF_FRAME      = TEME
TIME_SYSTEM    = UTC
MEAN_ELEMENT_THEORY = SGP/SGP4

EPOCH          = 2025-12-10T14:32:43.030176
MEAN_MOTION    = 15.40727460
ECCENTRICITY   = .000298
INCLINATION    = 43.0063
RA_OF_ASC_NODE = 60.3471
ARG_OF_PERICENTER = 267.9625
MEAN_ANOMALY   = 92.0891

EPHEMERIS_TYPE = 0
CLASSIFICATION_TYPE = U
NORAD_CAT_ID   = 66424
ELEMENT_SET_NO = 999
REV_AT_EPOCH   = 583
BSTAR          = .18882E-2
MEAN_MOTION_DOT = .79476E-3
MEAN_MOTION_DDOT = 0

CCSDS_OMM_VERS = 2.0
CREATION_DATE  = 
ORIGINATOR     = 

OBJECT_NAME    = STARLINK-35555
OBJECT_ID      = 2025-259D
CENTER_NAME    = EARTH
REF_FRAME      = TEME
TIME_SYSTEM    = UTC
MEAN_ELEMENT_THEORY = SGP/SGP4

EPOCH          = 2025-12-10T14:29:29.330016
MEAN_MOTION    = 15.40742359
ECCENTRICITY   = .000264
INCLINATION    = 42.9995
RA_OF_ASC_NODE = 60.3299
ARG_OF_PERICENTER = 256.0645
MEAN_ANOMALY   = 103.9918

EPHEMERIS_TYPE = 0
CLASSIFICATION_TYPE = U
NORAD_CAT_ID   = 66425
ELEMENT_SET_NO = 999
REV_AT_EPOCH   = 583
BSTAR          = .16616E-2
MEAN_MOTION_DOT = .69848E-3
MEAN_MOTION_DDOT = 0

CCSDS_OMM_VERS = 2.0
CREATION_DATE  = 
ORIGINATOR     = 

OBJECT_NAME    = STARLINK-35589
OBJECT_ID      = 2025-259E
CENTER_NAME    = EARTH
REF_FRAME      = TEME
TIME_SYSTEM    = UTC
MEAN_ELEMENT_THEORY = SGP/SGP4

EPOCH          = 2025-12-10T15:59:38.484096
MEAN_MOTION    = 15.40763335
ECCENTRICITY   = .0002323
INCLINATION    = 43.0023
RA_OF_ASC_NODE = 59.9355
ARG_OF_PERICENTER = 35.6462
MEAN_ANOMALY   = 324.4549

EPHEMERIS_TYPE = 0
CLASSIFICATION_TYPE = U
NORAD_CAT_ID   = 66426
ELEMENT_SET_NO = 999
REV_AT_EPOCH   = 584
BSTAR          = .18561E-2
MEAN_MOTION_DOT = .78195E-3
MEAN_MOTION_DDOT = 0

CCSDS_OMM_VERS = 2.0
CREATION_DATE  = 
ORIGINATOR     = 

OBJECT_NAME    = STARLINK-35611
OBJECT_ID      = 2025-259F
CENTER_NAME    = EARTH
REF_FRAME      = TEME
TIME_SYSTEM    = UTC
MEAN_ELEMENT_THEORY = SGP/SGP4

EPOCH          = 2025-12-10T12:49:41.677824
MEAN_MOTION    = 15.40693740
ECCENTRICITY   = .0001582
INCLINATION    = 43.0005
RA_OF_ASC_NODE = 60.6660
ARG_OF_PERICENTER = 283.5318
MEAN_ANOMALY   = 76.5363

EPHEMERIS_TYPE = 0
CLASSIFICATION_TYPE = U
NORAD_CAT_ID   = 66427
ELEMENT_SET_NO = 999
REV_AT_EPOCH   = 582
BSTAR          = .21744E-2
MEAN_MOTION_DOT = .91605E-3
MEAN_MOTION_DDOT = 0

CCSDS_OMM_VERS = 2.0
CREATION_DATE  = 
ORIGINATOR     = 

OBJECT_NAME    = STARLINK-35610
OBJECT_ID      = 2025-259G
CENTER_NAME    = EARTH
REF_FRAME      = TEME
TIME_SYSTEM    = UTC
MEAN_ELEMENT_THEORY = SGP/SGP4

EPOCH          = 2025-12-10T12:46:27.141312
MEAN_MOTION    = 15.40725360
ECCENTRICITY   = .0004836
INCLINATION    = 43.0056
RA_OF_ASC_NODE = 60.6532
ARG_OF_PERICENTER = 275.4633
MEAN_ANOMALY   = 84.5671

EPHEMERIS_TYPE = 0
CLASSIFICATION_TYPE = U
NORAD_CAT_ID   = 66428
ELEMENT_SET_NO = 999
REV_AT_EPOCH   = 582
BSTAR          = .19318E-2
MEAN_MOTION_DOT = .81347E-3
MEAN_MOTION_DDOT = 0

CCSDS_OMM_VERS = 2.0
CREATION_DATE  = 
ORIGINATOR     = 

OBJECT_NAME    = STARLINK-35533
OBJECT_ID      = 2025-259H
CENTER_NAME    = EARTH
REF_FRAME      = TEME
TIME_SYSTEM    = UTC
MEAN_ELEMENT_THEORY = SGP/SGP4

EPOCH          = 2025-12-10T12:43:13.689120
MEAN_MOTION    = 15.40705021
ECCENTRICITY   = .0003544
INCLINATION    = 43.0010
RA_OF_ASC_NODE = 60.6315
ARG_OF_PERICENTER = 271.0150
MEAN_ANOMALY   = 89.0300

EPHEMERIS_TYPE = 0
CLASSIFICATION_TYPE = U
NORAD_CAT_ID   = 66429
ELEMENT_SET_NO = 999
REV_AT_EPOCH   = 582
BSTAR          = .16481E-2
MEAN_MOTION_DOT = .69189E-3
MEAN_MOTION_DDOT = 0

CCSDS_OMM_VERS = 2.0
CREATION_DATE  = 
ORIGINATOR     = 

OBJECT_NAME    = STARLINK-35470
OBJECT_ID      = 2025-259J
CENTER_NAME    = EARTH
REF_FRAME      = TEME
TIME_SYSTEM    = UTC
MEAN_ELEMENT_THEORY = SGP/SGP4

EPOCH          = 2025-12-10T20:00:01.000224
MEAN_MOTION    = 15.40841912
ECCENTRICITY   = .000131
INCLINATION    = 43.0004
RA_OF_ASC_NODE = 58.8538
ARG_OF_PERICENTER = 280.4898
MEAN_ANOMALY   = 336.2932

EPHEMERIS_TYPE = 0
CLASSIFICATION_TYPE = U
NORAD_CAT_ID   = 66430
ELEMENT_SET_NO = 999
REV_AT_EPOCH   = 597
BSTAR          = -.58902E-2
MEAN_MOTION_DOT = -.239905E-2
MEAN_MOTION_DDOT = 0

CCSDS_OMM_VERS = 2.0
CREATION_DATE  = 
ORIGINATOR     = 

OBJECT_NAME    = STARLINK-35439
OBJECT_ID      = 2025-259K
CENTER_NAME    = EARTH
REF_FRAME      = TEME
TIME_SYSTEM    = UTC
MEAN_ELEMENT_THEORY = SGP/SGP4

EPOCH          = 2025-12-10T20:00:01.000224
MEAN_MOTION    = 15.40746137
ECCENTRICITY   = .0001075
INCLINATION    = 43.0003
RA_OF_ASC_NODE = 58.8212
ARG_OF_PERICENTER = 281.8794
MEAN_ANOMALY   = 347.4162

EPHEMERIS_TYPE = 0
CLASSIFICATION_TYPE = U
NORAD_CAT_ID   = 66431
ELEMENT_SET_NO = 999
REV_AT_EPOCH   = 597
BSTAR          = -.27534E-2
MEAN_MOTION_DOT = -.113791E-2
MEAN_MOTION_DDOT = 0

CCSDS_OMM_VERS = 2.0
CREATION_DATE  = 
ORIGINATOR     = 

OBJECT_NAME    = STARLINK-35446
OBJECT_ID      = 2025-259L
CENTER_NAME    = EARTH
REF_FRAME      = TEME
TIME_SYSTEM    = UTC
MEAN_ELEMENT_THEORY = SGP/SGP4

EPOCH          = 2025-12-10T20:00:01.000224
MEAN_MOTION    = 15.40744704
ECCENTRICITY   = .0001173
INCLINATION    = 43.0001
RA_OF_ASC_NODE = 58.7903
ARG_OF_PERICENTER = 255.6125
MEAN_ANOMALY   = 26.1279

EPHEMERIS_TYPE = 0
CLASSIFICATION_TYPE = U
NORAD_CAT_ID   = 66432
ELEMENT_SET_NO = 999
REV_AT_EPOCH   = 597
BSTAR          = -.27678E-2
MEAN_MOTION_DOT = -.114372E-2
MEAN_MOTION_DDOT = 0

CCSDS_OMM_VERS = 2.0
CREATION_DATE  = 
ORIGINATOR     = 

OBJECT_NAME    = STARLINK-35457
OBJECT_ID      = 2025-259M
CENTER_NAME    = EARTH
REF_FRAME      = TEME
TIME_SYSTEM    = UTC
MEAN_ELEMENT_THEORY = SGP/SGP4

EPOCH          = 2025-12-10T20:00:01.000224
MEAN_MOTION    = 15.40746348
ECCENTRICITY   = .0001269
INCLINATION    = 43.0000
RA_OF_ASC_NODE = 58.7612
ARG_OF_PERICENTER = 256.1193
MEAN_ANOMALY   = 38.0561

EPHEMERIS_TYPE = 0
CLASSIFICATION_TYPE = U
NORAD_CAT_ID   = 66433
ELEMENT_SET_NO = 999
REV_AT_EPOCH   = 597
BSTAR          = -.27893E-2
MEAN_MOTION_DOT = -.115251E-2
MEAN_MOTION_DDOT = 0

