STARLINK-35617          
1 66422U 25259A   25343.50845212  .00086728  00000+0  20546-2 0  9996
2 66422  43.0035  66.7321 0001039 134.0359 226.0583 15.40777762  5669
STARLINK-35618          
1 66423U 25259B   25344.60829678  .00077237  00000+0  18368-2 0  9991
2 66423  43.0022  60.3646 0001958 274.9313  85.1320 15.40711706  5838
STARLINK-35588          
1 66424U 25259C   25344.60605359  .00079476  00000+0  18882-2 0  9998
2 66424  43.0063  60.3471 0002980 267.9625  92.0891 15.40727460  5838
STARLINK-35555          
1 66425U 25259D   25344.60381169  .00069848  00000+0  16616-2 0  9994
2 66425  42.9995  60.3299 0002640 256.0645 103.9918 15.40742359  5839
STARLINK-35589          
1 66426U 25259E   25344.66641764  .00078195  00000+0  18561-2 0  9997
2 66426  43.0023  59.9355 0002323  35.6462 324.4549 15.40763335  5845
STARLINK-35611          
1 66427U 25259F   25344.53451016  .00091605  00000+0  21744-2 0  9991
2 66427  43.0005  60.6660 0001582 283.5318  76.5363 15.40693740  5823
STARLINK-35610          
1 66428U 25259G   25344.53225858  .00081347  00000+0  19318-2 0  9991
2 66428  43.0056  60.6532 0004836 275.4633  84.5671 15.40725360  5828
STARLINK-35533          
1 66429U 25259H   25344.53001955  .00069189  00000+0  16481-2 0  9990
2 66429  43.0010  60.6315 0003544 271.0150  89.0300 15.40705021  5820
STARLINK-35470          
1 66430U 25259J   25344.83334491 -.00239905  00000+0 -58902-2 0  9990
2 66430  43.0004  58.8538 0001310 280.4898 336.2932 15.40841912  5977
STARLINK-35439          
1 66431U 25259K   25344.83334491 -.00113791  00000+0 -27534-2 0  9992
2 66431  43.0003  58.8212 0001075 281.8794 347.4162 15.40746137  5976
STARLINK-35446          
1 66432U 25259L   25344.83334491 -.00114372  00000+0 -27678-2 0  9998
2 66432  43.0001  58.7903 0001173 255.6125  26.1279 15.40744704  5975
STARLINK-35457          
1 66433U 25259M   25344.83334491 -.00115251  00000+0 -27893-2 0  9995
2 66433  43.0000  58.7612 0001269 256.1193  38.0561 15.40746348  5971
